NORAD_CAT_ID,OBJECT_NAME,OBJECT_TYPE,EPOCH,MEAN_MOTION,ECCENTRICITY,INCLINATION,RA_OF_ASC_NODE,ARG_OF_PERICENTER,MEAN_ANOMALY,BSTAR,MEAN_MOTION_DOT,MEAN_MOTION_DDOT,TLE_LINE0,TLE_LINE1,TLE_LINE2,SEMIMAJOR_AXIS,PERIOD,APOGEE,PERIGEE,DECAYED
52293.0,STARLINK-3771,PAYLOAD,2022-06-20 12:00:00,15.50153101,0.0001247,53.2173,80.2343,67.5545,48.3986,-0.016035,-0.0083986,0.0,0 STARLINK-3771,1 52293U 22041AJ  22171.50001157 -.00839860  00000-0 -16035-1 0  9994,2 52293  53.2173  80.2343 0001247  67.5545  48.3986 15.50153101 10630,6794.416,92.894,417.128,415.4330000000001,0.0
52293.0,STARLINK-3771,PAYLOAD,2022-06-20 14:00:01,15.49998218,0.0001203,53.2174,79.8344,74.5688,146.6706,-0.01578,-0.00823428,0.0,0 STARLINK-3771,1 52293U 22041AJ  22171.58334491 -.00823428  00000-0 -15780-1 0  9991,2 52293  53.2174  79.8344 0001203  74.5688 146.6706 15.49998218  1304,6794.868,92.903,417.551,415.916,0.0
52293.0,STARLINK-3771,PAYLOAD,2022-06-20 22:00:00,15.49411885,0.0001272,53.2176,78.2404,70.4213,211.5045,-0.013918,-0.00719443,0.0,0 STARLINK-3771,1 52293U 22041AJ  22171.91667824 -.00719443  00000-0 -13918-1 0  9999,2 52293  53.2176  78.2404 0001272  70.4213 211.5045 15.49411885 10691,6796.581999999999,92.938,419.312,417.583,0.0
52293.0,STARLINK-3771,PAYLOAD,2022-06-21 14:00:01,15.48391054,0.000109,53.2174,75.0559,70.7641,330.6208,-0.0144139999999999,-0.00718725,0.0,0 STARLINK-3771,1 52293U 22041AJ  22172.58334491 -.00718725  00000-0 -14414-1 0  9998,2 52293  53.2174  75.0559 0001090  70.7641 330.6208 15.48391054  1307,6799.569,93.0,422.175,420.693,0.0
52293.0,STARLINK-3771,PAYLOAD,2022-06-21 22:00:00,15.47882334,0.0001245,53.2175,73.4676,64.9003,35.2928,-0.014709,-0.00720343,0.0,0 STARLINK-3771,1 52293U 22041AJ  22172.91667824 -.00720343  00000-0 -14709-1 0  9990,2 52293  53.2175  73.4676 0001245  64.9003  35.2928 15.47882334 10851,6801.059,93.03,423.771,422.077,0.0
52293.0,STARLINK-3771,PAYLOAD,2022-06-22 14:00:01,15.46861972,0.000129,53.2172,70.2902,75.1625,140.8125,-0.015222,-0.00719443,0.0,0 STARLINK-3771,1 52293U 22041AJ  22173.58334491 -.00719443  00000-0 -15222-1 0  9995,2 52293  53.2172  70.2902 0001290  75.1625 140.8125 15.46861972  1305,6804.05,93.092,426.792,425.037,0.0
52293.0,STARLINK-3771,PAYLOAD,2022-06-22 22:00:00,15.46351035,0.000129,53.2173,68.7056,74.7148,198.2308,-0.015449,-0.00717481,0.0,0 STARLINK-3771,1 52293U 22041AJ  22173.91667824 -.00717481  00000-0 -15449-1 0  9992,2 52293  53.2173  68.7056 0001290  74.7148 198.2308 15.46351035 11005,6805.5480000000025,93.122,428.291,426.535,0.0
52293.0,STARLINK-3771,PAYLOAD,2022-06-23 14:00:01,15.45330848,0.0001079,53.2172,65.5356,77.9288,307.1222,-0.016013,-0.00717856,0.0,0 STARLINK-3771,1 52293U 22041AJ  22174.58334491 -.00717856  00000-0 -16013-1 0  9991,2 52293  53.2172  65.5356 0001079  77.9288 307.1222 15.45330848  1303,6808.543000000002,93.184,431.143,429.673,0.0
52293.0,STARLINK-3771,PAYLOAD,2022-06-23 22:00:00,15.44823046,0.0001293,53.2173,63.9548,59.1515,21.0303,-0.016365,-0.00720748,0.0,0 STARLINK-3771,1 52293U 22041AJ  22174.91667824 -.00720748  00000-0 -16365-1 0  9991,2 52293  53.2173  63.9548 0001293  59.1515  21.0303 15.44823046 11154,6810.035,93.215,432.781,431.02,0.0
52293.0,STARLINK-3771,PAYLOAD,2022-06-24 14:00:01,15.43803159,0.0001306,53.2171,60.7918,76.079,112.5316,-0.016962,-0.00721397,0.0,0 STARLINK-3771,1 52293U 22041AJ  22175.58334491 -.00721397  00000-0 -16962-1 0  9990,2 52293  53.2171  60.7918 0001306  76.0790 112.5316 15.43803159  1304,6813.034000000002,93.276,435.789,434.009,0.0
52293.0,STARLINK-3771,PAYLOAD,2022-06-24 22:00:01,15.432906,0.0001418,53.2174,59.2147,64.7168,177.2523,-0.017133,-0.00716489,0.0,0 STARLINK-3771,1 52293U 22041AJ  22175.91668981 -.00716489  00000-0 -17133-1 0  9998,2 52293  53.2174  59.2147 0001418  64.7168 177.2523 15.43290600 11312,6814.542,93.307,437.374,435.441,0.0
52293.0,STARLINK-3771,PAYLOAD,2022-06-25 14:00:01,15.422704500000002,0.0001172,53.2173,56.0591,70.9917,275.6651,-0.017736,-0.00716514,0.0,0 STARLINK-3771,1 52293U 22041AJ  22176.58334491 -.00716514  00000-0 -17736-1 0  9996,2 52293  53.2173  56.0591 0001172  70.9917 275.6651 15.42270450  1300,6817.547,93.369,440.211,438.61300000000006,0.0
52293.0,STARLINK-3771,PAYLOAD,2022-06-25 22:00:00,15.41763585,0.0001301,53.2175,54.4858,55.5126,342.5978,-0.018155,-0.00720722,0.0,0 STARLINK-3771,1 52293U 22041AJ  22176.91667824 -.00720722  00000-0 -18155-1 0  9994,2 52293  53.2175  54.4858 0001301  55.5126 342.5978 15.41763585 11464,6819.041,93.4,441.793,440.019,0.0
52293.0,STARLINK-3771,PAYLOAD,2022-06-26 14:00:01,15.40743137,0.0001329,53.2174,51.3374,65.2285,74.0216,-0.018785,-0.0072069999999999,0.0,0 STARLINK-3771,1 52293U 22041AJ  22177.58335648 -.00720700  00000-0 -18785-1 0  9999,2 52293  53.2174  51.3374 0001329  65.2285  74.0216 15.40743137  1300,6822.052,93.461,444.823,443.01,0.0
52293.0,STARLINK-3771,PAYLOAD,2022-06-26 22:00:00,15.40231766,0.0001556,53.2174,49.7676,55.1163,133.6867,-0.019021,-0.0071771,0.0,0 STARLINK-3771,1 52293U 22041AJ  22177.91667824 -.00717710  00000-0 -19021-1 0  9991,2 52293  53.2174  49.7676 0001556  55.1163 133.6867 15.40231766  1305,6823.562,93.492,446.48800000000006,444.365,0.0
52293.0,STARLINK-3771,PAYLOAD,2022-06-27 06:00:00,15.39724314,0.0001304,53.2172,48.1969,82.9848,154.8227,-0.019472,-0.0072206999999999,0.0,0 STARLINK-3771,1 52293U 22041AJ  22178.25001157 -.00722070  00000-0 -19472-1 0  9995,2 52293  53.2172  48.1969 0001304  82.9848 154.8227 15.39724314 11670,6825.061,93.523,447.816,446.036,0.0
52293.0,STARLINK-3771,PAYLOAD,2022-06-27 14:00:01,15.39211413,0.0001277,53.2175,46.6264,73.1046,213.0968,-0.019659,-0.00717137,0.0,0 STARLINK-3771,1 52293U 22041AJ  22178.58334491 -.00717137  00000-0 -19659-1 0  9996,2 52293  53.2175  46.6264 0001277  73.1046 213.0968 15.39211413  1305,6826.5769999999975,93.554,449.314,447.57,0.0
52293.0,STARLINK-3771,PAYLOAD,2022-06-27 22:00:00,15.38703328,0.0001327,53.2174,45.0605,59.8308,274.1481,-0.020076,-0.00719968,0.0,0 STARLINK-3771,1 52293U 22041AJ  22178.91667824 -.00719968  00000-0 -20076-1 0  9991,2 52293  53.2174  45.0605 0001327  59.8308 274.1481 15.38703328  1302,6828.08,93.585,450.851,449.039,0.0
52293.0,STARLINK-3771,PAYLOAD,2022-06-28 14:00:01,15.37681697,0.0001212,53.2174,41.9265,69.2475,358.4537,-0.020671,-0.00717102,0.0,0 STARLINK-3771,1 52293U 22041AJ  22179.58334491 -.00717102  00000-0 -20671-1 0  9995,2 52293  53.2174  41.9265 0001212  69.2475 358.4537 15.37681697 11876,6831.104,93.647,453.797,452.141,0.0
52293.0,STARLINK-3771,PAYLOAD,2022-06-28 22:00:00,15.37173829,0.0001478,53.2172,40.3644,53.7193,59.9209,-0.021119,-0.0072038,0.0,0 STARLINK-3771,1 52293U 22041AJ  22179.91667824 -.00720380  00000-0 -21119-1 0  9991,2 52293  53.2172  40.3644 0001478  53.7193  59.9209 15.37173829  1306,6832.608,93.678,455.483,453.463,0.0
52293.0,STARLINK-3771,PAYLOAD,2022-06-29 14:00:01,15.36152389,0.0001358,53.2173,37.2375,74.8629,128.8758,-0.021736,-0.00717467,0.0,0 STARLINK-3771,1 52293U 22041AJ  22180.58334491 -.00717467  00000-0 -21736-1 0  9994,2 52293  53.2173  37.2375 0001358  74.8629 128.8758 15.36152389  1300,6835.637,93.741,458.43,456.573,0.0
52293.0,STARLINK-3771,PAYLOAD,2022-06-29 22:00:00,15.35641646,0.0001396999999999,53.2174,35.6789,68.6894,179.1513,-0.022064,-0.00716467,0.0,0 STARLINK-3771,1 52293U 22041AJ  22180.91667824 -.00716467  00000-0 -22064-1 0  9994,2 52293  53.2174  35.6789 0001397  68.6894 179.1513 15.35641646 12083,6837.151999999999,93.772,459.972,458.062,0.0
52293.0,STARLINK-3771,PAYLOAD,2022-06-30 14:00:01,15.34620502,0.0001226,53.2175,32.5594,73.1121,261.0969,-0.022715,-0.00713973,0.0,0 STARLINK-3771,1 52293U 22041AJ  22181.58334491 -.00713973  00000-0 -22715-1 0  9991,2 52293  53.2175  32.5594 0001226  73.1121 261.0969 15.34620502  1305,6840.185,93.834,462.889,461.211,0.0
52293.0,STARLINK-3771,PAYLOAD,2022-06-30 22:00:00,15.34113996,0.0001296,53.2174,31.0043,62.7064,313.7647,-0.023304,-0.00720219,0.0,0 STARLINK-3771,1 52293U 22041AJ  22181.91667824 -.00720219  00000-0 -23304-1 0  9993,2 52293  53.2174  31.0043 0001296  62.7064 313.7647 15.34113996  1306,6841.69,93.865,464.442,462.669,0.0
52293.0,STARLINK-3771,PAYLOAD,2022-07-01 14:00:01,15.33091501,0.0001361,53.2175,27.892,63.591,35.5724,-0.023903,-0.00715478,0.0,0 STARLINK-3771,1 52293U 22041AJ  22182.58334491 -.00715478  00000-0 -23903-1 0  9994,2 52293  53.2175  27.8920 0001361  63.5910  35.5724 15.33091501  1307,6844.732,93.928,467.529,465.666,0.0
52293.0,STARLINK-3771,PAYLOAD,2022-07-01 22:00:00,15.32582827,0.0001501,53.2175,26.3407,57.9712,81.6165,-0.024376,-0.00717808,0.0,0 STARLINK-3771,1 52293U 22041AJ  22182.91667824 -.00717808  00000-0 -24376-1 0  9994,2 52293  53.2175  26.3407 0001501  57.9712  81.6165 15.32582827  1300,6846.246999999999,93.959,469.139,467.084,0.0
52293.0,STARLINK-3771,PAYLOAD,2022-07-02 06:00:00,15.32073514,0.0001354,53.2174,24.7872,72.2118,107.1898,-0.024819,-0.00719073,0.0,0 STARLINK-3771,1 52293U 22041AJ  22183.25001157 -.00719073  00000-0 -24819-1 0  9991,2 52293  53.2174  24.7872 0001354  72.2118 107.1898 15.32073514 12445,6847.764,93.99,470.556,468.702,0.0
52293.0,STARLINK-3771,PAYLOAD,2022-07-02 14:00:01,15.31562135,0.0001395999999999,53.2176,23.2358,72.2828,146.3196,-0.025101,-0.00715902,0.0,0 STARLINK-3771,1 52293U 22041AJ  22183.58334491 -.00715902  00000-0 -25101-1 0  9999,2 52293  53.2176  23.2358 0001396  72.2828 146.3196 15.31562135  1304,6849.288000000001,94.022,472.109,470.197,0.0
52293.0,STARLINK-3771,PAYLOAD,2022-07-02 22:00:00,15.31051701,0.0001401,53.2176,21.6878,67.9232,189.266,-0.025482,-0.00715279,0.0,0 STARLINK-3771,1 52293U 22041AJ  22183.91667824 -.00715279  00000-0 -25482-1 0  9994,2 52293  53.2176  21.6878 0001401  67.9232 189.2660 15.31051701  1304,6850.81,94.053,473.635,471.715,0.0
